TAF MSLP 270325Z 2706/2806 04004KT 9999 FEW027 SCT067 TX33/2718Z TN23/2710Z 
     FM271100 07004KT CAVOK 
     FM271800 22008KT 9999 FEW033 
     FM280000 VRB03KT 9999 FEW020 SCT067
