TAF MSLP 220325Z 2206/2306 04003KT 9999 FEW020 SCT060 TX32/2217Z TN23/2210Z 
     FM221200 03004KT CAVOK 
     FM221800 21008KT 9999 SCT030 FEW037CB 
     FM230000 VRB02KT 9999 FEW023 FEW037CB PROB30 
      TEMPO 2302/2306 07008KT 8000 TSRA SCT020 FEW033CB BKN047
