TAF MSLP 260325Z 2606/2706 02003KT 9999 FEW030 TX33/2618Z TN23/2611Z 
     FM261100 06004KT CAVOK 
     FM261800 22008KT 9999 FEW037 
     FM270100 02004KT 9999 FEW027 FEW037CB PROB40 
      TEMPO 2702/2705 09005KT 7000 SHRA SCT023 FEW033CB SCT060
