TAF MSLP 280325Z 2806/2906 02005KT 9999 FEW025 SCT067 TX33/2817Z TN23/2810Z 
     FM280900 02005KT CAVOK 
     FM281800 21009KT 9999 FEW033 
     FM290000 VRB03KT 9999 FEW025 SCT067
