TAF MSLP 230325Z 2306/2406 04004KT 9999 FEW023 SCT067 TX32/2318Z TN23/2310Z 
     FM231100 07004KT CAVOK 
     FM231800 22008KT 9999 FEW027 FEW037CB 
      TEMPO 2319/2322 7000 TSRA 
     FM240000 VRB03KT 9999 FEW023 FEW037CB SCT055
