TAF MSLP 180325Z 1806/1906 07004KT 9999 FEW023 FEW037CB SCT067 TX32/1818Z TN23/1810Z PROB40 
      TEMPO 1807/1810 10012KT 5000 TSRA SCT017 SCT033CB BKN040 
     FM181000 07004KT 9999 FEW023 SCT067 
     FM181700 22008KT 9999 SCT025 FEW037CB 
      TEMPO 1819/1822 6000 TSRA SCT020 SCT033CB 
     FM190000 VRB03KT 9999 FEW023 FEW037CB SCT055 
      TEMPO 1903/1906 07012KT 4000 TSRA SCT020 SCT033CB BKN047
