TAF MSLP 240325Z 2406/2506 03004KT 9999 SCT075 TX33/2418Z TN23/2411Z 
     FM241000 01005KT CAVOK 
     FM241700 24007KT 9999 FEW033 
     FM250000 VRB01KT 9999 FEW030 FEW037CB PROB30 
      TEMPO 2504/2506 8000 SHRA FEW023 FEW037CB BKN060
