TAF MSLP 060325Z 0606/0706 09012KT 5000 TSRA BKN020 BKN033CB TX30/0618Z TN24/0610Z 
