TAF MSLP 100325Z 1006/1106 VRB02KT 9999 SCT023 FEW037CB SCT065 TX32/1019Z TN24/1011Z 
      TEMPO 1007/1009 8000 TSRA 
     FM101300 03004KT 9999 FEW023 
      TEMPO 1018/1021 8000 TSRA SCT027 FEW037CB 
      TEMPO 1101/1103 07015KT 4000 TSRA SCT023 SCT033CB BKN060
