TAF MSLP 010325Z 0106/0206 02005KT CAVOK TX33/0118Z TN23/0110Z 
     FM011800 22009KT 9999 FEW055 
     FM020000 VRB03KT CAVOK
