TAF MSLP 160325Z 1606/1706 02005KT CAVOK TX31/1619Z TN23/1610Z 
     FM161800 22010KT 9999 FEW027 FEW040CB 
     FM170000 VRB02KT 9999 FEW020 FEW040CB
