TAF MSLP 210325Z 2106/2206 09012KT 5000 TSRA BKN020 BKN030CB TX32/2118Z TN23/2110Z 
     FM210800 03005KT CAVOK 
     FM211800 22010KT 9999 FEW023 FEW040CB 
      TEMPO 2202/2206 34010G20KT 2000 +TSRA BKN017 BKN030CB
