TAF MSLP 070325Z 0706/0806 05007KT 8000 RA FEW020 SCT070 TX29/0718Z TN23/0710Z 
     FM071200 09005KT 9999 FEW023 
     FM071800 10009KT 9999 SCT033 
      TEMPO 0720/0724 8000 RA SCT017 FEW037CB 
     FM080000 09004KT 9999 SCT023
