TAF MSLP 090325Z 0906/1006 04005KT 9999 FEW023 SCT067 TX32/0918Z TN23/0910Z 
     FM091800 20008KT 9999 SCT027 FEW037CB 
      TEMPO 0919/0922 8000 TSRA 
     FM100000 VRB03KT 9999 FEW023 FEW037CB SCT067 PROB40 
      TEMPO 1003/1006 07012KT 6000 TSRA SCT020 SCT033CB SCT055
