TAF MSLP 310325Z 3106/0106 03004KT CAVOK TX33/3118Z TN23/3112Z 
     FM311800 22006KT 9999 FEW060 
     FM010000 VRB02KT 9999 FEW060
