TAF MSLP 190325Z 1906/2006 VRB01KT 9999 FEW023 SCT065 TX31/1918Z TN23/1911Z 
     FM191300 11003KT 9999 FEW027 
     FM191800 23007KT 9999 SCT027 FEW037CB 
      TEMPO 1918/1921 8000 TSRA 
     FM200000 VRB02KT 9999 FEW023 FEW037CB
