TAF MSLP 170325Z 1706/1806 06005KT 9999 FEW020 FEW037CB SCT070 TX31/1718Z TN23/1711Z 
     FM171200 02003KT 9999 FEW023 
     FM171800 22009KT 9999 SCT023 FEW037CB 
      TEMPO 1719/1722 7000 TSRA SCT020 FEW033CB SCT040 
     FM172200 23007KT 9999 SCT023 SCT060
