TAF MSLP 080325Z 0806/0906 03004KT 9999 FEW020 SCT075 TX31/0818Z TN23/0811Z 
     FM081300 08004KT 9999 FEW023 
     FM081600 18006KT 9999 SCT027 FEW037CB 
     FM090000 VRB01KT 9999 FEW023 FEW037CB 
      TEMPO 0904/0906 10008KT 5000 TSRA SCT023 FEW037CB BKN060
