TAF MSLP 300325Z 3006/3106 02005KT 9999 FEW023 SCT067 TX32/3018Z TN23/3010Z 
     FM301200 02007KT 9999 FEW027 
      TEMPO 3019/3023 20008KT 
     FM310400 02006KT CAVOK
