TAF MSLP 140325Z 1406/1506 VRB03KT 9999 FEW023 FEW037CB SCT055 TX31/1418Z TN24/1410Z PROB40 
      TEMPO 1409/1412 10012KT 4000 TSRA SCT015 SCT033CB BKN055 
     FM141200 07004KT 9999 FEW023 SCT067 
     FM141800 20008KT 9999 SCT027 FEW037CB 
      TEMPO 1419/1422 7000 TSRA 
     FM150000 VRB03KT 9999 FEW023 FEW037CB SCT055
