TAF MSLP 120329Z 1206/1306 06004KT 9999 FEW017 FEW037CB SCT055 TX30/1218Z TN23/1210Z 
     FM121200 VRB02KT 9999 FEW023 SCT047 
     FM121800 21008KT 9999 SCT027 
      TEMPO 1220/1223 5000 TSRA SCT015 FEW033CB BKN037 
     FM130000 VRB05KT 9999 FEW027
