TAF MSLP 130345Z 1306/1406 04004KT 9999 FEW023 SCT060 TX31/1318Z TN23/1310Z 
     FM131800 21008KT 9999 SCT027 FEW037CB 
      TEMPO 1319/1322 7000 TSRA 
     FM140000 VRB03KT 9999 FEW023 SCT060 PROB40 
      TEMPO 1404/0406 07010KT 6000 TSRA SCT020 FEW033CB BKN055
