TAF MSLP 150325Z 1506/1606 VRB02KT 9999 FEW017 FEW037CB SCT065 TX31/1518Z TN24/1511Z 
     FM151200 08004KT 9999 FEW023 
     FM151700 18006KT 9999 SCT023 FEW037CB 
      TEMPO 1519/1521 8000 TSRA 
     FM160000 VRB01KT 9999 FEW020 FEW037CB
