2025/10/02 18:37
TAF MSLP 021525Z 0218/0318 22006KT 9999 SCT027 FEW037CB TX31/0218Z TN24/0311Z 
      TEMPO 0219/0222 7000 TSRA SCT023 FEW033CB 
     FM022200 23004KT 9999 FEW027 FEW037CB 
      TEMPO 0304/0307 07008KT 6000 TSRA SCT020 SCT033CB BKN057 
     FM030700 06003KT 9999 FEW020 SCT065
