2025/10/03 18:45
TAF MSLP 031525Z 0318/0418 20008KT 9999 SCT025 FEW037CB TX32/0318Z TN24/0410Z 
      TEMPO 0320/0322 7000 TSRA 
     FM040000 VRB03KT 9999 FEW020 FEW037CB SCT055 
      TEMPO 0404/0407 04012KT 6000 TSRA SCT020 SCT033CB BKN055 
     FM040700 07004KT 9999 FEW020 SCT067
